<?xml version="1.0" encoding="UTF-8"?>
<kml xmlns="http://www.opengis.net/kml/2.2">
  <Document>
    <name>depok</name>
    <Style id="poly-FF5252-5201-171-nodesc-normal">
      <LineStyle>
        <color>ff5252ff</color>
        <width>5.201</width>
      </LineStyle>
      <PolyStyle>
        <color>ab5252ff</color>
        <fill>1</fill>
        <outline>1</outline>
      </PolyStyle>
      <BalloonStyle>
        <text><![CDATA[<h3>$[name]</h3>]]></text>
      </BalloonStyle>
    </Style>
    <Style id="poly-FF5252-5201-171-nodesc-highlight">
      <LineStyle>
        <color>ff5252ff</color>
        <width>7.8015</width>
      </LineStyle>
      <PolyStyle>
        <color>ab5252ff</color>
        <fill>1</fill>
        <outline>1</outline>
      </PolyStyle>
      <BalloonStyle>
        <text><![CDATA[<h3>$[name]</h3>]]></text>
      </BalloonStyle>
    </Style>
    <StyleMap id="poly-FF5252-5201-171-nodesc">
      <Pair>
        <key>normal</key>
        <styleUrl>#poly-FF5252-5201-171-nodesc-normal</styleUrl>
      </Pair>
      <Pair>
        <key>highlight</key>
        <styleUrl>#poly-FF5252-5201-171-nodesc-highlight</styleUrl>
      </Pair>
    </StyleMap>
    <Placemark>
      <name>depok</name>
      <styleUrl>#poly-FF5252-5201-171-nodesc</styleUrl>
      <Polygon>
        <outerBoundaryIs>
          <LinearRing>
            <tessellate>1</tessellate>
            <coordinates>
              106.7889584,-6.3632198,0
              106.7748821,-6.3993865,0
              106.7670709,-6.4031391,0
              106.7549254,-6.4084274,0
              106.7418467,-6.404973,0
              106.740114,-6.4163811,0
              106.7409642,-6.4231087,0
              106.7363212,-6.4243775,0
              106.7529401,-6.4297945,0
              106.7654029,-6.4333289,0
              106.7727161,-6.4375455,0
              106.7856258,-6.4333554,0
              106.7998589,-6.4503909,0
              106.8138497,-6.4611365,0
              106.8270676,-6.4601124,0
              106.8396844,-6.4634383,0
              106.846679,-6.4649306,0
              106.8546392,-6.4637152,0
              106.8708071,-6.4661779,0
              106.8805212,-6.4679213,0
              106.889927,-6.4510537,0
              106.8923126,-6.4444115,0
              106.8953939,-6.4288942,0
              106.8979633,-6.4105602,0
              106.8965043,-6.3957188,0
              106.8946159,-6.3878714,0
              106.8967617,-6.3764414,0
              106.8951323,-6.3710236,0
              106.8878804,-6.3684,0
              106.882967,-6.3697325,0
              106.8829137,-6.3651953,0
              106.872759,-6.3610501,0
              106.8742048,-6.3560772,0
              106.8703292,-6.3531515,0
              106.8628888,-6.357438,0
              106.86017,-6.3538459,0
              106.8574513,-6.3533246,0
              106.8572796,-6.3488888,0
              106.8524731,-6.3430881,0
              106.850499,-6.3404863,0
              106.8522585,-6.3380764,0
              106.8495548,-6.3363489,0
              106.8472374,-6.3379271,0
              106.8462933,-6.3418086,0
              106.8380259,-6.3412522,0
              106.8353653,-6.3450057,0
              106.8395495,-6.3444938,0
              106.837908,-6.3483325,0
              106.8386698,-6.3521712,0
              106.8360305,-6.3516594,0
              106.8344211,-6.3545597,0
              106.8279193,-6.3572894,0
              106.8211118,-6.3557966,0
              106.8151626,-6.3570334,0
              106.8102808,-6.3642839,0
              106.8029957,-6.3633454,0
              106.7989147,-6.3666318,0
              106.7889584,-6.3632198,0
            </coordinates>
          </LinearRing>
        </outerBoundaryIs>
      </Polygon>
    </Placemark>
  </Document>
</kml>
