<?xml version="1.0" encoding="UTF-8"?>
<kml xmlns="http://www.opengis.net/kml/2.2">
  <Document>
    <name>diy</name>
    <Style id="poly-F57C00-3701-166-nodesc-normal">
      <LineStyle>
        <color>ff007cf5</color>
        <width>3.701</width>
      </LineStyle>
      <PolyStyle>
        <color>a6007cf5</color>
        <fill>1</fill>
        <outline>1</outline>
      </PolyStyle>
      <BalloonStyle>
        <text><![CDATA[<h3>$[name]</h3>]]></text>
      </BalloonStyle>
    </Style>
    <Style id="poly-F57C00-3701-166-nodesc-highlight">
      <LineStyle>
        <color>ff007cf5</color>
        <width>5.5515</width>
      </LineStyle>
      <PolyStyle>
        <color>a6007cf5</color>
        <fill>1</fill>
        <outline>1</outline>
      </PolyStyle>
      <BalloonStyle>
        <text><![CDATA[<h3>$[name]</h3>]]></text>
      </BalloonStyle>
    </Style>
    <StyleMap id="poly-F57C00-3701-166-nodesc">
      <Pair>
        <key>normal</key>
        <styleUrl>#poly-F57C00-3701-166-nodesc-normal</styleUrl>
      </Pair>
      <Pair>
        <key>highlight</key>
        <styleUrl>#poly-F57C00-3701-166-nodesc-highlight</styleUrl>
      </Pair>
    </StyleMap>
    <Placemark>
      <name>diy</name>
      <styleUrl>#poly-F57C00-3701-166-nodesc</styleUrl>
      <Polygon>
        <outerBoundaryIs>
          <LinearRing>
            <tessellate>1</tessellate>
            <coordinates>
              110.0239427,-7.895076,0
              110.0788744,-7.925001,0
              110.1173265,-7.9399626,0
              110.1571519,-7.9576439,0
              110.2148302,-7.9875643,0
              110.2601488,-8.0093232,0
              110.2958543,-8.0229219,0
              110.3439195,-8.0310809,0
              110.3700121,-8.0732332,0
              110.4139574,-8.0881894,0
              110.4579027,-8.1085834,0
              110.5073412,-8.1208192,0
              110.5595262,-8.1398521,0
              110.6034715,-8.1412115,0
              110.676256,-8.181993,0
              110.7147081,-8.1955859,0
              110.7655199,-8.1969451,0
              110.8286913,-8.2037414,0
              110.836931,-8.1860709,0
              110.8245714,-8.1439304,0
              110.8053453,-8.1683996,0
              110.7888658,-8.1507276,0
              110.7902391,-8.1099429,0
              110.7723863,-8.0637153,0
              110.7600267,-8.0297211,0
              110.7689531,-7.9345222,0
              110.772387,-7.9022163,0
              110.7861192,-7.8719507,0
              110.7861192,-7.8161726,0
              110.7672367,-7.80903,0
              110.7545335,-7.8284173,0
              110.7462938,-7.8107305,0
              110.7147077,-7.7920236,0
              110.7081849,-7.8040985,0
              110.6827791,-7.8076692,0
              110.6700762,-7.7862408,0
              110.6604635,-7.804949,0
              110.6281908,-7.7998459,0
              110.5801256,-7.7998459,0
              110.5844169,-7.7896416,0
              110.5605561,-7.7821583,0
              110.5457933,-7.7971248,0
              110.5142076,-7.7712727,0
              110.492235,-7.7304503,0
              110.4771288,-7.6583212,0
              110.4633958,-7.5929862,0
              110.4427965,-7.5439785,0
              110.4139574,-7.560315,0
              110.3864915,-7.5984312,0
              110.3658922,-7.6202104,0
              110.3123338,-7.652877,0
              110.2766283,-7.7032333,0
              110.2656419,-7.6841803,0
              110.2574022,-7.6392662,0
              110.2436693,-7.6542381,0
              110.2244432,-7.6474328,0
              110.1832445,-7.6474328,0
              110.1461656,-7.6433495,0
              110.1283128,-7.6773754,0
              110.1365526,-7.7263679,0
              110.1104601,-7.7726333,0
              110.0651414,-7.8134516,0
              110.0445421,-7.851545,0
              110.0239427,-7.895076,0
            </coordinates>
          </LinearRing>
        </outerBoundaryIs>
      </Polygon>
    </Placemark>
  </Document>
</kml>
