<?xml version="1.0" encoding="UTF-8"?>
<kml xmlns="http://www.opengis.net/kml/2.2">
  <Document>
    <name>dki_jak</name>
    <Style id="poly-FF5252-5801-194-nodesc-normal">
      <LineStyle>
        <color>ff5252ff</color>
        <width>5.801</width>
      </LineStyle>
      <PolyStyle>
        <color>c25252ff</color>
        <fill>1</fill>
        <outline>1</outline>
      </PolyStyle>
      <BalloonStyle>
        <text><![CDATA[<h3>$[name]</h3>]]></text>
      </BalloonStyle>
    </Style>
    <Style id="poly-FF5252-5801-194-nodesc-highlight">
      <LineStyle>
        <color>ff5252ff</color>
        <width>8.7015</width>
      </LineStyle>
      <PolyStyle>
        <color>c25252ff</color>
        <fill>1</fill>
        <outline>1</outline>
      </PolyStyle>
      <BalloonStyle>
        <text><![CDATA[<h3>$[name]</h3>]]></text>
      </BalloonStyle>
    </Style>
    <StyleMap id="poly-FF5252-5801-194-nodesc">
      <Pair>
        <key>normal</key>
        <styleUrl>#poly-FF5252-5801-194-nodesc-normal</styleUrl>
      </Pair>
      <Pair>
        <key>highlight</key>
        <styleUrl>#poly-FF5252-5801-194-nodesc-highlight</styleUrl>
      </Pair>
    </StyleMap>
    <Placemark>
      <name>dki_jak</name>
      <styleUrl>#poly-FF5252-5801-194-nodesc</styleUrl>
      <Polygon>
        <outerBoundaryIs>
          <LinearRing>
            <tessellate>1</tessellate>
            <coordinates>
              106.6875639,-6.0973912,0
              106.6883871,-6.1063654,0
              106.697107,-6.1114138,0
              106.6891407,-6.1143418,0
              106.6907175,-6.1188323,0
              106.6870047,-6.1284963,0
              106.6915955,-6.1369008,0
              106.6877306,-6.1482483,0
              106.6896141,-6.1706026,0
              106.6898592,-6.1738467,0
              106.6959408,-6.1753841,0
              106.7184042,-6.1869919,0
              106.7166392,-6.193141,0
              106.7237522,-6.1921276,0
              106.7242456,-6.1962447,0
              106.7238593,-6.2072094,0
              106.7199967,-6.2096843,0
              106.7177651,-6.2231672,0
              106.7360899,-6.2249114,0
              106.7410252,-6.2278499,0
              106.7450596,-6.2313378,0
              106.7435153,-6.2366071,0
              106.7479802,-6.2396372,0
              106.748731,-6.24977,0
              106.7529152,-6.2503468,0
              106.7544172,-6.2586674,0
              106.7536447,-6.2674591,0
              106.749954,-6.2713023,0
              106.752443,-6.2744631,0
              106.7579364,-6.2775506,0
              106.7654903,-6.2861146,0
              106.7727023,-6.3015364,0
              106.780261,-6.3163416,0
              106.8097865,-6.3153173,0
              106.8027059,-6.3296061,0
              106.7973415,-6.3449186,0
              106.7933504,-6.3479469,0
              106.7931358,-6.351999,0
              106.793479,-6.3632598,0
              106.8029957,-6.3633454,0
              106.8102808,-6.3642839,0
              106.8151626,-6.3570334,0
              106.8200442,-6.3559245,0
              106.8279193,-6.3572894,0
              106.8344211,-6.3545597,0
              106.8386698,-6.3521712,0
              106.8353653,-6.3450057,0
              106.8380259,-6.3412522,0
              106.8439481,-6.3421052,0
              106.8523588,-6.3409102,0
              106.8559071,-6.3519038,0
              106.8628888,-6.357438,0
              106.8703292,-6.3531515,0
              106.8738803,-6.3554973,0
              106.871713,-6.3605303,0
              106.8773347,-6.3610421,0
              106.8830854,-6.3702548,0
              106.888407,-6.36889,0
              106.8969907,-6.3695721,0
              106.9021837,-6.3680579,0
              106.9063466,-6.3610844,0
              106.9146724,-6.36488,0
              106.9165608,-6.3472218,0
              106.9193073,-6.3354489,0
              106.9205196,-6.3312581,0
              106.9189853,-6.3270673,0
              106.9220966,-6.3162971,0
              106.9200793,-6.3012402,0
              106.915895,-6.2979773,0
              106.9123973,-6.2977857,0
              106.9108953,-6.2864824,0
              106.9084169,-6.2832003,0
              106.9090285,-6.2717279,0
              106.905606,-6.2721144,0
              106.9056168,-6.2660169,0
              106.9047801,-6.2608177,0
              106.9073766,-6.2593726,0
              106.9163889,-6.2522272,0
              106.9207664,-6.2503716,0
              106.9213673,-6.2536352,0
              106.9347568,-6.2533793,0
              106.9443693,-6.2508197,0
              106.9424705,-6.2383304,0
              106.9464082,-6.2340321,0
              106.9511935,-6.2182683,0
              106.955292,-6.2188869,0
              106.9583605,-6.2137033,0
              106.9620941,-6.2135753,0
              106.9651411,-6.2073038,0
              106.9697752,-6.1907507,0
              106.9718781,-6.1815764,0
              106.9722643,-6.152605,0
              106.9709767,-6.1417666,0
              106.9700325,-6.1065214,0
              106.9677152,-6.0917585,0
              106.9509434,-6.0896091,0
              106.9485911,-6.0925804,0
              106.9442298,-6.0974986,0
              106.939627,-6.0960693,0
              106.9256149,-6.0962828,0
              106.9236838,-6.0823714,0
              106.8978491,-6.0821996,0
              106.877078,-6.0938068,0
              106.8729155,-6.10264,0
              106.8618863,-6.11318,0
              106.8563074,-6.1083154,0
              106.8551057,-6.113948,0
              106.8468656,-6.1183857,0
              106.8326177,-6.1219702,0
              106.8221464,-6.1163375,0
              106.8084135,-6.1183857,0
              106.8029203,-6.0944895,0
              106.790389,-6.0938068,0
              106.7893591,-6.1064378,0
              106.7850675,-6.1074619,0
              106.7754544,-6.1045603,0
              106.7658414,-6.1006344,0
              106.7582883,-6.1032801,0
              106.7521085,-6.1004637,0
              106.7517652,-6.0968792,0
              106.7588033,-6.0765667,0
              106.7507352,-6.0740062,0
              106.7424955,-6.0869791,0
              106.7315092,-6.0828824,0
              106.7234414,-6.0903505,0
              106.7112535,-6.094746,0
              106.6982071,-6.0963675,0
              106.6875639,-6.0973912,0
            </coordinates>
          </LinearRing>
        </outerBoundaryIs>
      </Polygon>
    </Placemark>
  </Document>
</kml>
